OBJECT_NAME,OBJECT_ID,EPOCH,MEAN_MOTION,ECCENTRICITY,INCLINATION,RA_OF_ASC_NODE,ARG_OF_PERICENTER,MEAN_ANOMALY,EPHEMERIS_TYPE,CLASSIFICATION_TYPE,NORAD_CAT_ID,ELEMENT_SET_NO,REV_AT_EPOCH,BSTAR,MEAN_MOTION_DOT,MEAN_MOTION_DDOT
DUBAISAT-1,2009-041B,2026-06-11T22:24:42.654528,14.75115063,.00117392,98.0045,296.2495,88.6705,271.5849,0,U,35682,999,90432,.99163498E-4,.619E-5,0
OCEANSAT-2,2009-051A,2026-06-11T23:32:45.742272,13.99664756,.00148302,98.2324,150.3518,251.8860,108.0692,0,U,35931,999,87860,.28360115E-4,.4E-7,0
WORLDVIEW-2 (WV-2),2009-055A,2026-06-11T21:00:22.052736,14.37897799,.00034099,98.4736,236.3979,226.8292,133.2610,0,U,35946,999,87488,.39796329E-4,.77E-6,0
SMOS,2009-059A,2026-06-11T11:46:52.337856,14.39769543,.0001319,98.4425,349.9093,88.8797,271.2542,0,U,36036,999,87263,.8482E-4,.222E-5,0
YAOGAN-7,2009-069A,2026-06-11T16:08:51.893376,14.78004346,.0025845,98.0080,48.5737,58.7619,301.6119,0,U,36110,999,88881,.66392592E-4,.429E-5,0
TANDEM-X,2010-030A,2026-06-09T06:54:02.839104,15.19149708,.00019024,97.4454,168.1075,90.0350,270.1102,0,U,36605,999,88544,.40127109E-4,.776E-5,0
CARTOSAT-2B,2010-035A,2026-06-11T23:51:00.554688,14.78655157,.00107293,97.9960,213.5766,201.1592,158.9177,0,U,36795,999,85908,.83902582E-4,.563E-5,0
YAOGAN-10,2010-038A,2026-06-11T23:05:24.564768,14.85332321,.0001659,97.8983,186.4078,90.6009,331.5130,0,U,36834,999,85643,.18074436E-3,.15E-4,0
COSMO-SKYMED 4,2010-060A,2026-06-11T23:24:33.727104,14.82148542,.00014032,97.8889,346.6513,78.9833,281.1538,0,U,37216,999,84379,.28390764E-4,.174E-5,0
RESOURCESAT-2,2011-015A,2026-06-11T21:08:11.863104,14.21605243,.00101255,98.7644,230.3590,272.6096,87.3922,0,U,37387,999,78542,.39311841E-4,.42E-6,0
HAIYANG-2A,2011-043A,2026-06-11T22:37:28.807392,13.74457799,.00061836,99.3395,165.7342,101.2394,258.9451,0,U,37781,999,74593,-.16987556E-3,-.204E-5,0
RASAT,2011-044D,2026-06-11T22:26:24.055296,14.68161632,.00198012,98.0569,254.4119,205.8715,243.8148,0,U,37791,999,79241,.89045683E-4,.464E-5,0
SRMSAT,2011-058D,2026-06-11T12:22:46.149888,14.11574372,.0011909,19.9715,93.7945,141.4141,27.1536,0,U,37841,999,75701,.48954E-4,.355E-5,0
PLEIADES 1A,2011-076F,2026-06-12T00:02:20.410368,14.58567176,.00015762,98.1976,238.1740,98.0524,74.2066,0,U,38012,999,77123,.3118717E-4,.99E-6,0
ZIYUAN 1-02C (ZY 1-02C),2011-079A,2026-06-11T23:52:55.337088,14.38210155,.00058018,98.4075,230.4118,334.1516,78.3696,0,U,38038,999,75846,.85644732E-4,.217E-5,0
ARIRANG-3 (KOMPSAT-3),2012-025B,2026-06-11T23:15:07.669728,14.62201555,.00064732,98.1176,120.5189,122.6159,237.5668,0,U,38338,999,75058,.77787003E-4,.345E-5,0
EXACTVIEW-1 (ADS-1B),2012-039C,2026-06-11T21:42:21.090528,14.24983045,.00108767,98.9771,280.1754,181.3590,178.7560,0,U,38709,999,72195,.56008382E-4,.85E-6,0
SPOT 6,2012-047A,2026-06-11T21:58:21.568224,14.58559551,.00014373,98.2122,230.2859,91.6578,268.4786,0,U,38755,999,73228,.45103373E-4,.164E-5,0
PLEIADES 1B,2012-068A,2026-06-11T22:25:35.226336,14.58557051,.00016223,98.1947,238.0582,93.8488,266.2897,0,U,39019,999,72008,.45116287E-4,.164E-5,0
GOKTURK 2,2012-073A,2026-06-11T23:52:31.507968,14.75540064,.00018086,97.6827,0.6871,57.8650,302.2735,0,U,39030,999,72374,.16490813E-3,.1076E-4,0
LANDSAT 8,2013-008A,2026-06-11T22:38:05.967168,14.57090896,.00013806,98.2302,233.1404,93.1164,267.0193,0,U,39084,999,69713,.59344451E-4,.222E-5,0
SARAL,2013-009A,2026-06-11T22:38:18.570336,14.32854655,.00009855,98.5557,349.5770,338.2856,21.8286,0,U,39086,999,69485,.46581505E-4,.83E-6,0
GAOFEN-1,2013-018A,2026-06-11T23:31:51.775968,14.76531033,.00157419,97.9097,235.1539,284.8038,75.1428,0,U,39150,999,70747,.29545148E-4,.155E-5,0
VNREDSAT 1,2013-021B,2026-06-11T23:11:00.444768,14.64850833,.00016804,97.9085,216.5827,89.4379,270.7017,0,U,39160,999,69952,.697136E-4,.327E-5,0
ARIRANG-5 (KOMPSAT-5),2013-042A,2026-06-11T23:28:49.550592,15.04479060,.00048477,97.6216,349.7528,133.9411,226.2215,0,U,39227,999,70307,.11739703E-3,.1582E-4,0
SKYSAT-A,2013-066C,2026-06-11T16:50:34.749312,15.12945250,.00205806,97.3820,212.2735,337.4555,22.5770,0,U,39418,999,68765,.14845125E-3,.2565E-4,0
DUBAISAT-2,2013-066D,2026-06-11T23:15:03.722112,15.10146356,.00127593,97.4565,153.2494,56.6593,303.5856,0,U,39419,999,68560,.26253121E-3,.4228E-4,0
GPM-CORE,2014-009C,2026-06-11T23:09:08.062560,15.44456484,.0012101,64.9720,325.6166,249.5555,110.4286,0,U,39574,999,69700,.23733587E-3,.10836E-3,0
KAZEOSAT 1,2014-024A,2026-06-11T22:57:31.385664,14.42077500,.00014372,98.3207,235.5337,76.6828,283.4522,0,U,39731,999,63780,.15407743E-4,.8E-7,0
