DUBAISAT-1              
1 35682U 09041B   26162.93382702  .00000619  00000+0  99163-4 0  9996
2 35682  98.0045 296.2495 0011739  88.6705 271.5849 14.75115063904321
OCEANSAT-2              
1 35931U 09051A   26162.98108498  .00000004  00000+0  28360-4 0  9996
2 35931  98.2324 150.3518 0014830 251.8860 108.0692 13.99664756878601
WORLDVIEW-2 (WV-2)      
1 35946U 09055A   26162.87525524  .00000077  00000+0  39796-4 0  9992
2 35946  98.4736 236.3979 0003409 226.8292 133.2610 14.37897799874887
SMOS                    
1 36036U 09059A   26162.49088354  .00000222  00000+0  84820-4 0  9990
2 36036  98.4425 349.9093 0001319  88.8797 271.2542 14.39769543872630
YAOGAN-7                
1 36110U 09069A   26162.67282284  .00000429  00000+0  66393-4 0  9996
2 36110  98.0080  48.5737 0025845  58.7619 301.6119 14.78004346888813
TANDEM-X                
1 36605U 10030A   26160.28753286  .00000776  00000+0  40127-4 0  9997
2 36605  97.4454 168.1075 0001902  90.0350 270.1102 15.19149708885449
CARTOSAT-2B             
1 36795U 10035A   26162.99375642  .00000563  00000+0  83903-4 0  9991
2 36795  97.9960 213.5766 0010729 201.1592 158.9177 14.78655157859088
YAOGAN-10               
1 36834U 10038A   26162.96208987  .00001500  00000+0  18074-3 0  9990
2 36834  97.8983 186.4078 0001659  90.6009 331.5130 14.85332321856433
COSMO-SKYMED 4          
1 37216U 10060A   26162.97539036  .00000174  00000+0  28391-4 0  9993
2 37216  97.8889 346.6513 0001403  78.9833 281.1538 14.82148542843792
RESOURCESAT-2           
1 37387U 11015A   26162.88069286  .00000042  00000+0  39312-4 0  9997
2 37387  98.7644 230.3590 0010125 272.6096  87.3922 14.21605243785426
HAIYANG-2A              
1 37781U 11043A   26162.94269453 -.00000204  00000+0 -16988-3 0  9996
2 37781  99.3395 165.7342 0006183 101.2394 258.9451 13.74457799745930
RASAT                   
1 37791U 11044D   26162.93500064  .00000464  00000+0  89046-4 0  9995
2 37791  98.0569 254.4119 0019801 205.8715 243.8148 14.68161632792410
SRMSAT                  
1 37841U 11058D   26162.51581192  .00000355  00000+0  48954-4 0  9993
2 37841  19.9715  93.7945 0011909 141.4141  27.1536 14.11574372757019
PLEIADES 1A             
1 38012U 11076F   26163.00162512  .00000099  00000+0  31187-4 0  9995
2 38012  98.1976 238.1740 0001576  98.0524  74.2066 14.58567176771233
ZIYUAN 1-02C (ZY 1-02C) 
1 38038U 11079A   26162.99508492  .00000217  00000+0  85645-4 0  9994
2 38038  98.4075 230.4118 0005801 334.1516  78.3696 14.38210155758462
ARIRANG-3 (KOMPSAT-3)   
1 38338U 12025B   26162.96883877  .00000345  00000+0  77787-4 0  9999
2 38338  98.1176 120.5189 0006473 122.6159 237.5668 14.62201555750584
EXACTVIEW-1 (ADS-1B)    
1 38709U 12039C   26162.90441077  .00000085  00000+0  56008-4 0  9996
2 38709  98.9771 280.1754 0010876 181.3590 178.7560 14.24983045721954
SPOT 6                  
1 38755U 12047A   26162.91552741  .00000164  00000+0  45103-4 0  9990
2 38755  98.2122 230.2859 0001437  91.6578 268.4786 14.58559551732285
PLEIADES 1B             
1 39019U 12068A   26162.93443549  .00000164  00000+0  45116-4 0  9998
2 39019  98.1947 238.0582 0001622  93.8488 266.2897 14.58557051720089
GOKTURK 2               
1 39030U 12073A   26162.99480912  .00001076  00000+0  16491-3 0  9994
2 39030  97.6827   0.6871 0001808  57.8650 302.2735 14.75540064723747
LANDSAT 8               
1 39084U 13008A   26162.94312462  .00000222  00000+0  59344-4 0  9998
2 39084  98.2302 233.1404 0001380  93.1164 267.0193 14.57090896697136
SARAL                   
1 39086U 13009A   26162.94327049  .00000083  00000+0  46582-4 0  9993
2 39086  98.5557 349.5770 0000985 338.2856  21.8286 14.32854655694851
GAOFEN-1                
1 39150U 13018A   26162.98046037  .00000155  00000+0  29545-4 0  9994
2 39150  97.9097 235.1539 0015741 284.8038  75.1428 14.76531033707475
VNREDSAT 1              
1 39160U 13021B   26162.96597737  .00000327  00000+0  69714-4 0  9998
2 39160  97.9085 216.5827 0001680  89.4379 270.7017 14.64850833699522
ARIRANG-5 (KOMPSAT-5)   
1 39227U 13042A   26162.97835128  .00001582  00000+0  11740-3 0  9994
2 39227  97.6216 349.7528 0004847 133.9411 226.2215 15.04479060703072
SKYSAT-A                
1 39418U 13066C   26162.70179108  .00002565  00000+0  14845-3 0  9993
2 39418  97.3820 212.2735 0020580 337.4555  22.5770 15.12945250687654
DUBAISAT-2              
1 39419U 13066D   26162.96879308  .00004228  00000+0  26253-3 0  9995
2 39419  97.4565 153.2494 0012759  56.6593 303.5856 15.10146356685607
GPM-CORE                
1 39574U 14009C   26162.96467665  .00010836  00000+0  23734-3 0  9997
2 39574  64.9720 325.6166 0012101 249.5555 110.4286 15.44456484697006
KAZEOSAT 1              
1 39731U 14024A   26162.95661326  .00000008  00000+0  15408-4 0  9998
2 39731  98.3207 235.5337 0001437  76.6828 283.4522 14.42077500637804
